start=new Date('2023-02-17T00:00:00.000Z').valueOf();
sats=[{"OBJECT_TYPE":"PAYLOAD","DECAY_DATE":null,"ELEMENT_SET_NO":"999","TIME_SYSTEM":"UTC","RCS_SIZE":"LARGE","OBJECT_ID":"2022-005A","REV_AT_EPOCH":"6140","OBJECT_NAME":"STARLINK-3366","MEAN_MOTION_DOT":"0.00002233","TLE_LINE2":"2 51104  53.2135 262.4450 0001144  67.2502 292.8611 15.08845009 61407","EPHEMERIS_TYPE":"0","PERIOD":"95.437","APOAPSIS":"540.521","TLE_LINE1":"1 51104U 22005A   23047.93192078  .00002233  00000-0  15830-3 0  9995","LAUNCH_DATE":"2022-01-19","NORAD_CAT_ID":"51104","SEMIMAJOR_AXIS":"6917.865","MEAN_ELEMENT_THEORY":"SGP4","ARG_OF_PERICENTER":"67.2502","INCLINATION":"53.2135","GP_ID":"225656110","MEAN_MOTION":"15.08845009","CENTER_NAME":"EARTH","EPOCH":"2023-02-16T22:21:57.955392","CLASSIFICATION_TYPE":"U","ECCENTRICITY":"0.00011440","MEAN_ANOMALY":"292.8611","RA_OF_ASC_NODE":"262.4450","COUNTRY_CODE":"US","PERIAPSIS":"538.939","SITE":"AFETR","FILE":"3798893","REF_FRAME":"TEME","MEAN_MOTION_DDOT":"0.0000000000000","BSTAR":"0.00015830000000"},{"PERIAPSIS":"539.177","SITE":"AFETR","REF_FRAME":"TEME","MEAN_MOTION_DDOT":"0.0000000000000","BSTAR":"0.00010219000000","FILE":"3799178","CLASSIFICATION_TYPE":"U","ECCENTRICITY":"0.00007890","MEAN_ANOMALY":"264.9772","RA_OF_ASC_NODE":"262.5621","GP_ID":"225685832","MEAN_MOTION":"15.08847237","CENTER_NAME":"EARTH","EPOCH":"2023-02-16T21:44:51.818784","COUNTRY_CODE":"US","TLE_LINE1":"1 51105U 22005B   23047.90615531  .00001339  00000-0  10219-3 0  9999","LAUNCH_DATE":"2022-01-19","EPHEMERIS_TYPE":"0","PERIOD":"95.437","APOAPSIS":"540.269","INCLINATION":"53.2124","ARG_OF_PERICENTER":"95.1310","SEMIMAJOR_AXIS":"6917.858","MEAN_ELEMENT_THEORY":"SGP4","NORAD_CAT_ID":"51105","ELEMENT_SET_NO":"999","TIME_SYSTEM":"UTC","RCS_SIZE":"LARGE","OBJECT_TYPE":"PAYLOAD","DECAY_DATE":null,"MEAN_MOTION_DOT":"0.00001339","TLE_LINE2":"2 51105  53.2124 262.5621 0000789  95.1310 264.9772 15.08847237 60286","OBJECT_ID":"2022-005B","REV_AT_EPOCH":"6028","OBJECT_NAME":"STARLINK-3350"},{"RCS_SIZE":"LARGE","ELEMENT_SET_NO":"999","TIME_SYSTEM":"UTC","DECAY_DATE":null,"OBJECT_TYPE":"PAYLOAD","MEAN_MOTION_DOT":"0.00002567","TLE_LINE2":"2 51106  53.2164 262.6550 0000871  91.1759 268.9333 15.08848905 60277","OBJECT_NAME":"STARLINK-3176","REV_AT_EPOCH":"6027","OBJECT_ID":"2022-005C","LAUNCH_DATE":"2022-01-19","TLE_LINE1":"1 51106U 22005C   23047.88407517  .00002567  00000-0  17925-3 0  9995","PERIOD":"95.437","APOAPSIS":"540.321","EPHEMERIS_TYPE":"0","INCLINATION":"53.2164","ARG_OF_PERICENTER":"91.1759","MEAN_ELEMENT_THEORY":"SGP4","SEMIMAJOR_AXIS":"6917.853","NORAD_CAT_ID":"51106","RA_OF_ASC_NODE":"262.6550","CLASSIFICATION_TYPE":"U","ECCENTRICITY":"0.00008710","MEAN_ANOMALY":"268.9333","EPOCH":"2023-02-16T21:13:04.094688","CENTER_NAME":"EARTH","GP_ID":"225687083","MEAN_MOTION":"15.08848905","COUNTRY_CODE":"US","SITE":"AFETR","PERIAPSIS":"539.116","MEAN_MOTION_DDOT":"0.0000000000000","BSTAR":"0.00017925000000","REF_FRAME":"TEME","FILE":"3799178"},{"TLE_LINE2":"2 51107  53.2140 272.6543 0000583  85.8299 274.2760 15.09464369 60143","MEAN_MOTION_DOT":"0.00231270","OBJECT_NAME":"STARLINK-3368","REV_AT_EPOCH":"6014","OBJECT_ID":"2022-005D","RCS_SIZE":"LARGE","TIME_SYSTEM":"UTC","ELEMENT_SET_NO":"999","DECAY_DATE":null,"OBJECT_TYPE":"PAYLOAD","INCLINATION":"53.2140","ARG_OF_PERICENTER":"85.8299","SEMIMAJOR_AXIS":"6915.973","NORAD_CAT_ID":"51107","MEAN_ELEMENT_THEORY":"SGP4","LAUNCH_DATE":"2022-01-19","TLE_LINE1":"1 51107U 22005D   23047.88385296  .00231270  00000-0  13843-1 0  9993","APOAPSIS":"538.241","PERIOD":"95.398","EPHEMERIS_TYPE":"0","COUNTRY_CODE":"US","RA_OF_ASC_NODE":"272.6543","MEAN_ANOMALY":"274.2760","CLASSIFICATION_TYPE":"U","ECCENTRICITY":"0.00005830","CENTER_NAME":"EARTH","EPOCH":"2023-02-16T21:12:44.895744","MEAN_MOTION":"15.09464369","GP_ID":"225686831","BSTAR":"0.01384300000000","MEAN_MOTION_DDOT":"0.0000000000000","REF_FRAME":"TEME","FILE":"3799178","SITE":"AFETR","PERIAPSIS":"537.434"},{"SITE":"AFETR","PERIAPSIS":"538.862","BSTAR":"0.00002298500000","MEAN_MOTION_DDOT":"0.0000000000000","REF_FRAME":"TEME","FILE":"3799178","RA_OF_ASC_NODE":"262.5773","MEAN_ANOMALY":"280.3921","ECCENTRICITY":"0.00012840","CLASSIFICATION_TYPE":"U","EPOCH":"2023-02-16T21:39:34.287552","CENTER_NAME":"EARTH","MEAN_MOTION":"15.08838526","GP_ID":"225685582","COUNTRY_CODE":"US","LAUNCH_DATE":"2022-01-19","TLE_LINE1":"1 51108U 22005E   23047.90248018  .00000078  00000-0  22985-4 0  9997","APOAPSIS":"540.638","PERIOD":"95.438","EPHEMERIS_TYPE":"0","INCLINATION":"53.2163","ARG_OF_PERICENTER":"79.7215","MEAN_ELEMENT_THEORY":"SGP4","SEMIMAJOR_AXIS":"6917.885","NORAD_CAT_ID":"51108","RCS_SIZE":"LARGE","TIME_SYSTEM":"UTC","ELEMENT_SET_NO":"999","DECAY_DATE":null,"OBJECT_TYPE":"PAYLOAD","TLE_LINE2":"2 51108  53.2163 262.5773 0001284  79.7215 280.3921 15.08838526 60282","MEAN_MOTION_DOT":"0.00000078","REV_AT_EPOCH":"6028","OBJECT_NAME":"STARLINK-3362","OBJECT_ID":"2022-005E"},{"COUNTRY_CODE":"US","MEAN_ANOMALY":"272.4669","CLASSIFICATION_TYPE":"U","ECCENTRICITY":"0.00015160","RA_OF_ASC_NODE":"262.7583","MEAN_MOTION":"15.08851630","GP_ID":"225686333","CENTER_NAME":"EARTH","EPOCH":"2023-02-16T20:37:21.432576","REF_FRAME":"TEME","BSTAR":"0.00031647000000","MEAN_MOTION_DDOT":"0.0000000000000","FILE":"3799178","PERIAPSIS":"538.661","SITE":"AFETR","TLE_LINE2":"2 51109  53.2154 262.7583 0001516  87.6497 272.4669 15.08851630 60048","MEAN_MOTION_DOT":"0.00004754","OBJECT_ID":"2022-005F","REV_AT_EPOCH":"6004","OBJECT_NAME":"STARLINK-3358","TIME_SYSTEM":"UTC","ELEMENT_SET_NO":"999","RCS_SIZE":"LARGE","OBJECT_TYPE":"PAYLOAD","DECAY_DATE":null,"ARG_OF_PERICENTER":"87.6497","INCLINATION":"53.2154","SEMIMAJOR_AXIS":"6917.845","NORAD_CAT_ID":"51109","MEAN_ELEMENT_THEORY":"SGP4","TLE_LINE1":"1 51109U 22005F   23047.85927584  .00004754  00000-0  31647-3 0  9993","LAUNCH_DATE":"2022-01-19","EPHEMERIS_TYPE":"0","APOAPSIS":"540.759","PERIOD":"95.437"},{"MEAN_MOTION_DOT":"0.00017124","TLE_LINE2":"2 51110  53.2168 262.6152 0001409  94.3766 265.7387 15.08863193 60286","OBJECT_ID":"2022-005G","REV_AT_EPOCH":"6028","OBJECT_NAME":"STARLINK-3344","ELEMENT_SET_NO":"999","TIME_SYSTEM":"UTC","RCS_SIZE":"LARGE","OBJECT_TYPE":"PAYLOAD","DECAY_DATE":null,"ARG_OF_PERICENTER":"94.3766","INCLINATION":"53.2168","MEAN_ELEMENT_THEORY":"SGP4","SEMIMAJOR_AXIS":"6917.809","NORAD_CAT_ID":"51110","TLE_LINE1":"1 51110U 22005G   23047.89512983  .00017124  00000-0  10907-2 0  9992","LAUNCH_DATE":"2022-01-19","EPHEMERIS_TYPE":"0","PERIOD":"95.436","APOAPSIS":"540.649","COUNTRY_CODE":"US","CLASSIFICATION_TYPE":"U","ECCENTRICITY":"0.00014090","MEAN_ANOMALY":"265.7387","RA_OF_ASC_NODE":"262.6152","GP_ID":"225686583","MEAN_MOTION":"15.08863193","CENTER_NAME":"EARTH","EPOCH":"2023-02-16T21:28:59.217312","REF_FRAME":"TEME","MEAN_MOTION_DDOT":"0.0000000000000","BSTAR":"0.00109070000000","FILE":"3799178","PERIAPSIS":"538.700","SITE":"AFETR"},{"PERIAPSIS":"538.674","SITE":"AFETR","REF_FRAME":"TEME","MEAN_MOTION_DDOT":"0.0000000000000","BSTAR":"0.00038217000000","FILE":"3799178","CLASSIFICATION_TYPE":"U","ECCENTRICITY":"0.00014910","MEAN_ANOMALY":"261.6474","RA_OF_ASC_NODE":"262.7238","GP_ID":"225687332","MEAN_MOTION":"15.08853221","CENTER_NAME":"EARTH","EPOCH":"2023-02-16T20:51:52.360992","COUNTRY_CODE":"US","TLE_LINE1":"1 51111U 22005H   23047.86935603  .00005802  00000-0  38217-3 0  9993","LAUNCH_DATE":"2022-01-19","EPHEMERIS_TYPE":"0","PERIOD":"95.437","APOAPSIS":"540.736","ARG_OF_PERICENTER":"98.4687","INCLINATION":"53.2118","SEMIMAJOR_AXIS":"6917.840","MEAN_ELEMENT_THEORY":"SGP4","NORAD_CAT_ID":"51111","ELEMENT_SET_NO":"999","TIME_SYSTEM":"UTC","RCS_SIZE":"LARGE","OBJECT_TYPE":"PAYLOAD","DECAY_DATE":null,"MEAN_MOTION_DOT":"0.00005802","TLE_LINE2":"2 51111  53.2118 262.7238 0001491  98.4687 261.6474 15.08853221 60278","OBJECT_ID":"2022-005H","OBJECT_NAME":"STARLINK-3173","REV_AT_EPOCH":"6027"},{"EPOCH":"2023-02-16T21:23:40.412544","CENTER_NAME":"EARTH","GP_ID":"225686083","MEAN_MOTION":"15.08844341","RA_OF_ASC_NODE":"262.6262","CLASSIFICATION_TYPE":"U","ECCENTRICITY":"0.00013420","MEAN_ANOMALY":"259.5601","COUNTRY_CODE":"US","SITE":"AFETR","PERIAPSIS":"538.804","FILE":"3799178","MEAN_MOTION_DDOT":"0.0000000000000","BSTAR":"0.00017867000000","REF_FRAME":"TEME","DECAY_DATE":null,"OBJECT_TYPE":"PAYLOAD","RCS_SIZE":"LARGE","ELEMENT_SET_NO":"999","TIME_SYSTEM":"UTC","REV_AT_EPOCH":"6028","OBJECT_NAME":"STARLINK-3374","OBJECT_ID":"2022-005J","MEAN_MOTION_DOT":"0.00002557","TLE_LINE2":"2 51112  53.2154 262.6262 0001342 100.5542 259.5601 15.08844341 60287","PERIOD":"95.437","APOAPSIS":"540.660","EPHEMERIS_TYPE":"0","LAUNCH_DATE":"2022-01-19","TLE_LINE1":"1 51112U 22005J   23047.89143996  .00002557  00000-0  17867-3 0  9995","SEMIMAJOR_AXIS":"6917.867","MEAN_ELEMENT_THEORY":"SGP4","NORAD_CAT_ID":"51112","ARG_OF_PERICENTER":"100.5542","INCLINATION":"53.2154"},{"TLE_LINE1":"1 51113U 22005K   23047.94664046  .00003183  00000-0  21798-3 0  9990","LAUNCH_DATE":"2022-01-19","EPHEMERIS_TYPE":"0","PERIOD":"95.437","APOAPSIS":"540.545","ARG_OF_PERICENTER":"88.2275","INCLINATION":"53.2160","SEMIMAJOR_AXIS":"6917.876","MEAN_ELEMENT_THEORY":"SGP4","NORAD_CAT_ID":"51113","ELEMENT_SET_NO":"999","TIME_SYSTEM":"UTC","RCS_SIZE":"LARGE","OBJECT_TYPE":"PAYLOAD","DECAY_DATE":null,"MEAN_MOTION_DOT":"0.00003183","TLE_LINE2":"2 51113  53.2160 262.3747 0001163  88.2275 271.8851 15.08841479 61392","OBJECT_ID":"2022-005K","OBJECT_NAME":"STARLINK-3372","REV_AT_EPOCH":"6139","PERIAPSIS":"538.936","SITE":"AFETR","REF_FRAME":"TEME","MEAN_MOTION_DDOT":"0.0000000000000","BSTAR":"0.00021798000000","FILE":"3798884","CLASSIFICATION_TYPE":"U","ECCENTRICITY":"0.00011630","MEAN_ANOMALY":"271.8851","RA_OF_ASC_NODE":"262.3747","GP_ID":"225655637","MEAN_MOTION":"15.08841479","EPOCH":"2023-02-16T22:43:09.735744","CENTER_NAME":"EARTH","COUNTRY_CODE":"US"}];
